STARLINK-36108          
1 66868U 25281W   25344.75002315 -.01232542  46361-3 -28019-2 0  9999
2 66868  43.0020 134.6746 0001671 272.8842  17.3898 15.96614278  2472
STARLINK-36092          
1 66869U 25281X   25344.75002315 -.01236576  46674-3 -27998-2 0  9993
2 66869  43.0021 134.6691 0001731 274.3433  18.0804 15.96687641  2472
STARLINK-36114          
1 66870U 25281Y   25344.75002315 -.01241749  47077-3 -27970-2 0  9991
2 66870  43.0020 134.6620 0001629 272.0351  23.2092 15.96782568  2476
STARLINK-36095          
1 66871U 25281Z   25344.75002315 -.01246757  47473-3 -27933-2 0  9995
2 66871  43.0018 134.6543 0001630 274.0170  24.1112 15.96880545  2478
STARLINK-36082          
1 66872U 25281AA  25344.75002315 -.01239806  47019-3 -27683-2 0  9991
2 66872  43.0018 134.6495 0001725 271.8713  28.1659 15.96940670  2474
STARLINK-36128          
1 66873U 25281AB  25344.75002315 -.01256354  48300-3 -27664-2 0  9992
2 66873  43.0015 134.6311 0001713 272.8425  34.4024 15.97195544  2421
STARLINK-36129          
1 66874U 25281AC  25344.75002315 -.01246183  47510-3 -27677-2 0  9998
2 66874  43.0018 134.6426 0001722 273.4070  29.3953 15.97038594  2475
STARLINK-36053          
1 66875U 25281AD  25344.75002315 -.01252507  48070-3 -27453-2 0  9990
2 66875  43.0017 134.6244 0001692 274.4156  35.2421 15.97277493  2429
STARLINK-35702          
1 66876U 25281AE  25344.75002315 -.01244535  47441-3 -27497-2 0  9992
2 66876  43.0020 134.6356 0001742 276.3063  29.2605 15.97131878  2470
ZQ-3 R/B                
1 66877U 25282A   25344.54971036  .01257378  73723-5  26051-3 0  9993
2 66877  56.9528  66.0239 0805460 216.1667 138.2240 14.53151085  1070
1998-067XS              
1 66906U 98067XS  25344.79569867  .00038284  00000+0  66575-3 0  9998
2 66906  51.6302 152.0585 0003796 193.8715 166.2170 15.50409035  1311
1998-067XT              
1 66907U 98067XT  25343.50529068  .00076342  00000+0  12921-2 0  9998
2 66907  51.6307 158.4423 0004803 208.5081 151.5646 15.50864429  1113
