CCSDS_OMM_VERS = 2.0
CREATION_DATE  = 
ORIGINATOR     = 

OBJECT_NAME    = STARLINK-36108
OBJECT_ID      = 2025-281W
CENTER_NAME    = EARTH
REF_FRAME      = TEME
TIME_SYSTEM    = UTC
MEAN_ELEMENT_THEORY = SGP/SGP4

EPOCH          = 2025-12-10T18:00:02.000160
MEAN_MOTION    = 15.96614278
ECCENTRICITY   = .0001671
INCLINATION    = 43.0020
RA_OF_ASC_NODE = 134.6746
ARG_OF_PERICENTER = 272.8842
MEAN_ANOMALY   = 17.3898

EPHEMERIS_TYPE = 0
CLASSIFICATION_TYPE = U
NORAD_CAT_ID   = 66868
ELEMENT_SET_NO = 999
REV_AT_EPOCH   = 247
BSTAR          = -.28019E-2
MEAN_MOTION_DOT = -.1232542E-1
MEAN_MOTION_DDOT = .46361E-3

CCSDS_OMM_VERS = 2.0
CREATION_DATE  = 
ORIGINATOR     = 

OBJECT_NAME    = STARLINK-36092
OBJECT_ID      = 2025-281X
CENTER_NAME    = EARTH
REF_FRAME      = TEME
TIME_SYSTEM    = UTC
MEAN_ELEMENT_THEORY = SGP/SGP4

EPOCH          = 2025-12-10T18:00:02.000160
MEAN_MOTION    = 15.96687641
ECCENTRICITY   = .0001731
INCLINATION    = 43.0021
RA_OF_ASC_NODE = 134.6691
ARG_OF_PERICENTER = 274.3433
MEAN_ANOMALY   = 18.0804

EPHEMERIS_TYPE = 0
CLASSIFICATION_TYPE = U
NORAD_CAT_ID   = 66869
ELEMENT_SET_NO = 999
REV_AT_EPOCH   = 247
BSTAR          = -.27998E-2
MEAN_MOTION_DOT = -.1236576E-1
MEAN_MOTION_DDOT = .46674E-3

CCSDS_OMM_VERS = 2.0
CREATION_DATE  = 
ORIGINATOR     = 

OBJECT_NAME    = STARLINK-36114
OBJECT_ID      = 2025-281Y
CENTER_NAME    = EARTH
REF_FRAME      = TEME
TIME_SYSTEM    = UTC
MEAN_ELEMENT_THEORY = SGP/SGP4

EPOCH          = 2025-12-10T18:00:02.000160
MEAN_MOTION    = 15.96782568
ECCENTRICITY   = .0001629
INCLINATION    = 43.0020
RA_OF_ASC_NODE = 134.6620
ARG_OF_PERICENTER = 272.0351
MEAN_ANOMALY   = 23.2092

EPHEMERIS_TYPE = 0
CLASSIFICATION_TYPE = U
NORAD_CAT_ID   = 66870
ELEMENT_SET_NO = 999
REV_AT_EPOCH   = 247
BSTAR          = -.2797E-2
MEAN_MOTION_DOT = -.1241749E-1
MEAN_MOTION_DDOT = .47077E-3

CCSDS_OMM_VERS = 2.0
CREATION_DATE  = 
ORIGINATOR     = 

OBJECT_NAME    = STARLINK-36095
OBJECT_ID      = 2025-281Z
CENTER_NAME    = EARTH
REF_FRAME      = TEME
TIME_SYSTEM    = UTC
MEAN_ELEMENT_THEORY = SGP/SGP4

EPOCH          = 2025-12-10T18:00:02.000160
MEAN_MOTION    = 15.96880545
ECCENTRICITY   = .000163
INCLINATION    = 43.0018
RA_OF_ASC_NODE = 134.6543
ARG_OF_PERICENTER = 274.0170
MEAN_ANOMALY   = 24.1112

EPHEMERIS_TYPE = 0
CLASSIFICATION_TYPE = U
NORAD_CAT_ID   = 66871
ELEMENT_SET_NO = 999
REV_AT_EPOCH   = 247
BSTAR          = -.27933E-2
MEAN_MOTION_DOT = -.1246757E-1
MEAN_MOTION_DDOT = .47473E-3

CCSDS_OMM_VERS = 2.0
CREATION_DATE  = 
ORIGINATOR     = 

OBJECT_NAME    = STARLINK-36082
OBJECT_ID      = 2025-281AA
CENTER_NAME    = EARTH
REF_FRAME      = TEME
TIME_SYSTEM    = UTC
MEAN_ELEMENT_THEORY = SGP/SGP4

EPOCH          = 2025-12-10T18:00:02.000160
MEAN_MOTION    = 15.96940670
ECCENTRICITY   = .0001725
INCLINATION    = 43.0018
RA_OF_ASC_NODE = 134.6495
ARG_OF_PERICENTER = 271.8713
MEAN_ANOMALY   = 28.1659

EPHEMERIS_TYPE = 0
CLASSIFICATION_TYPE = U
NORAD_CAT_ID   = 66872
ELEMENT_SET_NO = 999
REV_AT_EPOCH   = 247
BSTAR          = -.27683E-2
MEAN_MOTION_DOT = -.1239806E-1
MEAN_MOTION_DDOT = .47019E-3

CCSDS_OMM_VERS = 2.0
CREATION_DATE  = 
ORIGINATOR     = 

OBJECT_NAME    = STARLINK-36128
OBJECT_ID      = 2025-281AB
CENTER_NAME    = EARTH
REF_FRAME      = TEME
TIME_SYSTEM    = UTC
MEAN_ELEMENT_THEORY = SGP/SGP4

EPOCH          = 2025-12-10T18:00:02.000160
MEAN_MOTION    = 15.97195544
ECCENTRICITY   = .0001713
INCLINATION    = 43.0015
RA_OF_ASC_NODE = 134.6311
ARG_OF_PERICENTER = 272.8425
MEAN_ANOMALY   = 34.4024

EPHEMERIS_TYPE = 0
CLASSIFICATION_TYPE = U
NORAD_CAT_ID   = 66873
ELEMENT_SET_NO = 999
REV_AT_EPOCH   = 242
BSTAR          = -.27664E-2
MEAN_MOTION_DOT = -.1256354E-1
MEAN_MOTION_DDOT = .483E-3

CCSDS_OMM_VERS = 2.0
CREATION_DATE  = 
ORIGINATOR     = 

OBJECT_NAME    = STARLINK-36129
OBJECT_ID      = 2025-281AC
CENTER_NAME    = EARTH
REF_FRAME      = TEME
TIME_SYSTEM    = UTC
MEAN_ELEMENT_THEORY = SGP/SGP4

EPOCH          = 2025-12-10T18:00:02.000160
MEAN_MOTION    = 15.97038594
ECCENTRICITY   = .0001722
INCLINATION    = 43.0018
RA_OF_ASC_NODE = 134.6426
ARG_OF_PERICENTER = 273.4070
MEAN_ANOMALY   = 29.3953

EPHEMERIS_TYPE = 0
CLASSIFICATION_TYPE = U
NORAD_CAT_ID   = 66874
ELEMENT_SET_NO = 999
REV_AT_EPOCH   = 247
BSTAR          = -.27677E-2
MEAN_MOTION_DOT = -.1246183E-1
MEAN_MOTION_DDOT = .4751E-3

CCSDS_OMM_VERS = 2.0
CREATION_DATE  = 
ORIGINATOR     = 

OBJECT_NAME    = STARLINK-36053
OBJECT_ID      = 2025-281AD
CENTER_NAME    = EARTH
REF_FRAME      = TEME
TIME_SYSTEM    = UTC
MEAN_ELEMENT_THEORY = SGP/SGP4

EPOCH          = 2025-12-10T18:00:02.000160
MEAN_MOTION    = 15.97277493
ECCENTRICITY   = .0001692
INCLINATION    = 43.0017
RA_OF_ASC_NODE = 134.6244
ARG_OF_PERICENTER = 274.4156
MEAN_ANOMALY   = 35.2421

EPHEMERIS_TYPE = 0
CLASSIFICATION_TYPE = U
NORAD_CAT_ID   = 66875
ELEMENT_SET_NO = 999
REV_AT_EPOCH   = 242
BSTAR          = -.27453E-2
MEAN_MOTION_DOT = -.1252507E-1
MEAN_MOTION_DDOT = .4807E-3

CCSDS_OMM_VERS = 2.0
CREATION_DATE  = 
ORIGINATOR     = 

OBJECT_NAME    = STARLINK-35702
OBJECT_ID      = 2025-281AE
CENTER_NAME    = EARTH
REF_FRAME      = TEME
TIME_SYSTEM    = UTC
MEAN_ELEMENT_THEORY = SGP/SGP4

EPOCH          = 2025-12-10T18:00:02.000160
MEAN_MOTION    = 15.97131878
ECCENTRICITY   = .0001742
INCLINATION    = 43.0020
RA_OF_ASC_NODE = 134.6356
ARG_OF_PERICENTER = 276.3063
MEAN_ANOMALY   = 29.2605

EPHEMERIS_TYPE = 0
CLASSIFICATION_TYPE = U
NORAD_CAT_ID   = 66876
ELEMENT_SET_NO = 999
REV_AT_EPOCH   = 247
BSTAR          = -.27497E-2
MEAN_MOTION_DOT = -.1244535E-1
MEAN_MOTION_DDOT = .47441E-3

CCSDS_OMM_VERS = 2.0
CREATION_DATE  = 
ORIGINATOR     = 

OBJECT_NAME    = ZQ-3 R/B
OBJECT_ID      = 2025-282A
CENTER_NAME    = EARTH
REF_FRAME      = TEME
TIME_SYSTEM    = UTC
MEAN_ELEMENT_THEORY = SGP/SGP4

EPOCH          = 2025-12-10T13:11:34.975104
MEAN_MOTION    = 14.53151085
ECCENTRICITY   = .080546
INCLINATION    = 56.9528
RA_OF_ASC_NODE = 66.0239
ARG_OF_PERICENTER = 216.1667
MEAN_ANOMALY   = 138.2240

EPHEMERIS_TYPE = 0
CLASSIFICATION_TYPE = U
NORAD_CAT_ID   = 66877
ELEMENT_SET_NO = 999
REV_AT_EPOCH   = 107
BSTAR          = .26051E-3
MEAN_MOTION_DOT = .1257378E-1
MEAN_MOTION_DDOT = .73723E-5

CCSDS_OMM_VERS = 2.0
CREATION_DATE  = 
ORIGINATOR     = 

OBJECT_NAME    = 1998-067XS
OBJECT_ID      = 1998-067XS
CENTER_NAME    = EARTH
REF_FRAME      = TEME
TIME_SYSTEM    = UTC
MEAN_ELEMENT_THEORY = SGP/SGP4

EPOCH          = 2025-12-10T19:05:48.365088
MEAN_MOTION    = 15.50409035
ECCENTRICITY   = .00037964
INCLINATION    = 51.6302
RA_OF_ASC_NODE = 152.0585
ARG_OF_PERICENTER = 193.8715
MEAN_ANOMALY   = 166.2170

EPHEMERIS_TYPE = 0
CLASSIFICATION_TYPE = U
NORAD_CAT_ID   = 66906
ELEMENT_SET_NO = 999
REV_AT_EPOCH   = 131
BSTAR          = .6657488E-3
MEAN_MOTION_DOT = .38284E-3
MEAN_MOTION_DDOT = 0

CCSDS_OMM_VERS = 2.0
CREATION_DATE  = 
ORIGINATOR     = 

OBJECT_NAME    = 1998-067XT
OBJECT_ID      = 1998-067XT
CENTER_NAME    = EARTH
REF_FRAME      = TEME
TIME_SYSTEM    = UTC
MEAN_ELEMENT_THEORY = SGP/SGP4

EPOCH          = 2025-12-09T12:07:37.114752
MEAN_MOTION    = 15.50864429
ECCENTRICITY   = .00048036
INCLINATION    = 51.6307
RA_OF_ASC_NODE = 158.4423
ARG_OF_PERICENTER = 208.5081
MEAN_ANOMALY   = 151.5646

EPHEMERIS_TYPE = 0
CLASSIFICATION_TYPE = U
NORAD_CAT_ID   = 66907
ELEMENT_SET_NO = 999
REV_AT_EPOCH   = 111
BSTAR          = .12921241E-2
MEAN_MOTION_DOT = .76342E-3
MEAN_MOTION_DDOT = 0

